OBJECT_NAME,OBJECT_ID,EPOCH,MEAN_MOTION,ECCENTRICITY,INCLINATION,RA_OF_ASC_NODE,ARG_OF_PERICENTER,MEAN_ANOMALY,EPHEMERIS_TYPE,CLASSIFICATION_TYPE,NORAD_CAT_ID,ELEMENT_SET_NO,REV_AT_EPOCH,BSTAR,MEAN_MOTION_DOT,MEAN_MOTION_DDOT
HORIZONS-3E,2018-074B,2026-06-07T19:21:49.215168,1.00272627,.0000822,0.0033,245.6704,32.8636,77.1255,0,U,43633,999,2824,0,-.15E-6,0
AEHF-4 (USA 288),2018-079A,2026-06-08T02:47:28.555008,1.00276400,.006061,1.4293,3.1612,356.9282,230.6823,0,U,43651,999,2820,0,-.26E-5,0
BEIDOU-3 G1,2018-085A,2026-06-08T04:38:51.700416,1.00271680,.0008514,2.8446,97.6295,346.9034,41.7525,0,U,43683,999,2797,0,-.93E-6,0
GSAT-29,2018-089A,2026-06-08T03:22:39.879840,1.00271542,.0003602,0.0457,114.9853,318.5460,288.7001,0,U,43698,999,2769,0,.101E-5,0
ES'HAIL 2,2018-090A,2026-06-07T21:37:30.326880,1.00273859,.0001905,0.0153,51.7811,61.1895,133.5104,0,U,43700,999,2758,0,.159E-5,0
GEO-KOMPSAT-2A,2018-100A,2026-06-08T04:18:38.737728,1.00270998,.000233,0.0496,133.7231,310.3366,5.4409,0,U,43823,999,2753,0,-.328E-5,0
GSAT-11,2018-100B,2026-06-08T01:45:21.133728,1.00271533,.0007902,0.0507,256.3311,189.4093,271.0754,0,U,43824,999,2738,0,-.62E-6,0
GSAT-7A,2018-105A,2026-06-08T03:33:38.729088,1.00269372,.0002261,0.0174,259.2608,160.2259,313.2703,0,U,43864,999,2735,0,.42E-6,0
COSMOS 2533,2018-107A,2026-06-07T00:04:17.264640,1.00273352,.000056,0.0463,97.2057,358.9855,230.2964,0,U,43867,999,2734,0,-.25E-6,0
TJS-3,2018-110A,2026-06-07T18:08:29.663232,1.00273399,.0001979,2.5195,80.6060,73.9109,162.0070,0,U,43874,999,2732,0,-.201E-5,0
ZHONGXING-2D,2019-001A,2026-06-08T05:26:44.460672,1.00269254,.0000733,0.0475,88.0094,285.8172,94.4866,0,U,43920,999,5399,0,-.322E-5,0
HELLAS-SAT 4 & SGS-1,2019-007A,2026-06-08T03:49:38.792064,1.00271097,.0005036,0.0652,133.4853,6.1247,213.3760,0,U,44034,999,2727,0,.168E-5,0
GSAT-31,2019-007B,2026-06-08T03:20:40.073280,1.00268261,.0002042,0.0876,261.6688,107.2116,345.6375,0,U,44035,999,2687,0,.141E-5,0
NUSANTARA SATU,2019-009A,2026-06-07T17:32:34.888704,1.00267728,.000431,0.0166,91.6471,24.9583,188.6763,0,U,44048,999,2667,0,0,0
ZHONGXING-6C,2019-012A,2026-06-08T05:26:51.948960,1.00268819,.0013383,0.1412,80.3698,330.2991,58.0766,0,U,44067,999,2665,0,-.32E-5,0
WGS 10 (USA 291),2019-014A,2026-06-08T05:06:52.404192,1.00272385,.0000286,0.0184,8.8457,330.4906,54.3105,0,U,44071,999,2652,0,.62E-6,0
TIANLIAN 2-01,2019-017A,2026-06-08T03:28:54.283008,1.00271421,.0000858,0.5155,83.1289,7.7419,294.9216,0,U,44076,999,2655,0,-.91E-6,0
ARABSAT-6A,2019-021A,2026-06-08T00:19:54.054048,1.00273929,.0000688,0.0541,17.0542,50.5424,224.2998,0,U,44186,999,2606,0,.169E-5,0
BEIDOU-3 IGSO-1,2019-023A,2026-06-06T22:54:10.040832,1.00294902,.0025419,58.6799,37.7569,225.7371,92.8010,0,U,44204,999,710,0,-.215E-5,0
BEIDOU-2 G8,2019-027A,2026-06-08T05:30:51.564672,1.00274505,.001055,1.6346,74.4917,284.2605,125.1034,0,U,44231,999,2599,0,-.231E-5,0
YAMAL 601,2019-031A,2026-06-08T05:03:22.739040,1.00271352,.0002436,0.0113,35.1219,42.7823,303.5484,0,U,44307,999,2583,0,.135E-5,0
AT&T T-16,2019-034A,2026-06-07T09:31:31.738368,1.00271029,.0000497,0.0211,62.8087,205.3448,29.6836,0,U,44333,999,2553,0,-.101E-5,0
EUTELSAT 7C,2019-034B,2026-06-08T03:08:56.195808,1.00271300,.0003161,0.0740,174.1211,248.1412,248.4991,0,U,44334,999,674,0,.64E-6,0
BEIDOU-3 IGSO-2,2019-035A,2026-06-06T13:55:17.483808,1.00270343,.00398392,55.2446,158.9549,216.2059,208.5586,0,U,44337,999,2556,0,-.62E-6,0
COSMOS 2539,2019-048A,2026-06-06T15:14:23.175744,1.00269386,.00004153,0.0370,96.4456,52.5217,346.6880,0,U,44457,999,2512,0,.94E-6,0
EDRS-C,2019-049A,2026-06-07T22:39:35.644320,1.00271759,.0001096,0.0096,22.0013,65.0821,291.6723,0,U,44475,999,2511,0,-.247E-5,0
INTELSAT 39 (IS-39),2019-049B,2026-06-08T03:33:38.729088,1.00270743,.0000767,0.0182,316.2579,2.4219,53.2314,0,U,44476,999,2503,0,.49E-6,0
AMOS-17,2019-050A,2026-06-08T03:11:48.422112,1.00270253,.000165,0.0175,324.8854,135.5887,221.0043,0,U,44479,999,2509,0,.125E-5,0
AEHF-5 (USA 292),2019-051A,2026-06-08T01:50:58.096320,1.00267904,.0067045,1.4619,335.4513,0.9823,40.8101,0,U,44481,999,2517,0,-.243E-5,0
EUTELSAT 5 WEST B,2019-067A,2026-06-08T03:05:34.018944,1.00272029,.0003183,0.0633,345.3916,91.8739,220.6603,0,U,44624,999,2434,0,-.27E-6,0
TJS-4,2019-070A,2026-06-08T03:30:46.603872,1.00270325,.0004898,0.0127,285.1460,114.5803,353.0353,0,U,44637,999,2444,0,-.154E-5,0
BEIDOU-3 IGSO-3,2019-073A,2026-05-16T19:27:04.075776,1.00246251,.0042953,54.8566,281.2355,189.4588,170.3676,0,U,44709,999,2414,0,-.217E-5,0
