HORIZONS-3E             
1 43633U 18074B   26158.80681962 -.00000015  00000+0  00000+0 0  9996
2 43633   0.0033 245.6704 0000822  32.8636  77.1255  1.00272627 28245
AEHF-4 (USA 288)        
1 43651U 18079A   26159.11630272 -.00000260  00000+0  00000+0 0  9996
2 43651   1.4293   3.1612 0060610 356.9282 230.6823  1.00276400 28207
BEIDOU-3 G1             
1 43683U 18085A   26159.19365394 -.00000093  00000+0  00000+0 0  9990
2 43683   2.8446  97.6295 0008514 346.9034  41.7525  1.00271680 27979
GSAT-29                 
1 43698U 18089A   26159.14073935  .00000101  00000+0  00000+0 0  9991
2 43698   0.0457 114.9853 0003602 318.5460 288.7001  1.00271542 27699
ES'HAIL 2               
1 43700U 18090A   26158.90104545  .00000159  00000+0  00000+0 0  9995
2 43700   0.0153  51.7811 0001905  61.1895 133.5104  1.00273859 27587
GEO-KOMPSAT-2A          
1 43823U 18100A   26159.17961502 -.00000328  00000+0  00000+0 0  9996
2 43823   0.0496 133.7231 0002330 310.3366   5.4409  1.00270998 27536
GSAT-11                 
1 43824U 18100B   26159.07316127 -.00000062  00000+0  00000+0 0  9998
2 43824   0.0507 256.3311 0007902 189.4093 271.0754  1.00271533 27386
GSAT-7A                 
1 43864U 18105A   26159.14836492  .00000042  00000+0  00000+0 0  9994
2 43864   0.0174 259.2608 0002261 160.2259 313.2703  1.00269372 27353
COSMOS 2533             
1 43867U 18107A   26158.00297760 -.00000025  00000+0  00000+0 0  9994
2 43867   0.0463  97.2057 0000560 358.9855 230.2964  1.00273352 27342
TJS-3                   
1 43874U 18110A   26158.75589888 -.00000201  00000+0  00000+0 0  9999
2 43874   2.5195  80.6060 0001979  73.9109 162.0070  1.00273399 27329
ZHONGXING-2D            
1 43920U 19001A   26159.22690348 -.00000322  00000+0  00000+0 0  9992
2 43920   0.0475  88.0094 0000733 285.8172  94.4866  1.00269254 53993
HELLAS-SAT 4 & SGS-1    
1 44034U 19007A   26159.15947676  .00000168  00000+0  00000+0 0  9993
2 44034   0.0652 133.4853 0005036   6.1247 213.3760  1.00271097 27278
GSAT-31                 
1 44035U 19007B   26159.13935270  .00000141  00000+0  00000+0 0  9990
2 44035   0.0876 261.6688 0002042 107.2116 345.6375  1.00268261 26874
NUSANTARA SATU          
1 44048U 19009A   26158.73095936  .00000000  00000+0  00000+0 0  9991
2 44048   0.0166  91.6471 0004310  24.9583 188.6763  1.00267728 26675
ZHONGXING-6C            
1 44067U 19012A   26159.22699015 -.00000320  00000+0  00000+0 0  9995
2 44067   0.1412  80.3698 0013383 330.2991  58.0766  1.00268819 26656
WGS 10 (USA 291)        
1 44071U 19014A   26159.21310653  .00000062  00000+0  00000+0 0  9991
2 44071   0.0184   8.8457 0000286 330.4906  54.3105  1.00272385 26525
TIANLIAN 2-01           
1 44076U 19017A   26159.14507272 -.00000091  00000+0  00000+0 0  9999
2 44076   0.5155  83.1289 0000858   7.7419 294.9216  1.00271421 26558
ARABSAT-6A              
1 44186U 19021A   26159.01382007  .00000169  00000+0  00000+0 0  9994
2 44186   0.0541  17.0542 0000688  50.5424 224.2998  1.00273929 26069
BEIDOU-3 IGSO-1         
1 44204U 19023A   26157.95428288 -.00000215  00000+0  00000+0 0  9993
2 44204  58.6799  37.7569 0025419 225.7371  92.8010  1.00294902  7100
BEIDOU-2 G8             
1 44231U 19027A   26159.22976348 -.00000231  00000+0  00000+0 0  9992
2 44231   1.6346  74.4917 0010550 284.2605 125.1034  1.00274505 25991
YAMAL 601               
1 44307U 19031A   26159.21067985  .00000135  00000+0  00000+0 0  9990
2 44307   0.0113  35.1219 0002436  42.7823 303.5484  1.00271352 25833
AT&T T-16               
1 44333U 19034A   26158.39689512 -.00000101  00000+0  00000+0 0  9990
2 44333   0.0211  62.8087 0000497 205.3448  29.6836  1.00271029 25531
EUTELSAT 7C             
1 44334U 19034B   26159.13120597  .00000064  00000+0  00000+0 0  9994
2 44334   0.0740 174.1211 0003161 248.1412 248.4991  1.00271300  6749
BEIDOU-3 IGSO-2         
1 44337U 19035A   26157.58006347 -.00000062  00000+0  00000+0 0  9990
2 44337  55.2446 158.9549 0039839 216.2059 208.5586  1.00270343 25569
COSMOS 2539             
1 44457U 19048A   26157.63499046  .00000094  00000+0  00000+0 0  9999
2 44457   0.0370  96.4456 0000415  52.5217 346.6880  1.00269386 25122
EDRS-C                  
1 44475U 19049A   26158.94416255 -.00000247  00000+0  00000+0 0  9997
2 44475   0.0096  22.0013 0001096  65.0821 291.6723  1.00271759 25118
INTELSAT 39 (IS-39)     
1 44476U 19049B   26159.14836492  .00000049  00000+0  00000+0 0  9999
2 44476   0.0182 316.2579 0000767   2.4219  53.2314  1.00270743 25031
AMOS-17                 
1 44479U 19050A   26159.13319933  .00000125  00000+0  00000+0 0  9994
2 44479   0.0175 324.8854 0001650 135.5887 221.0043  1.00270253 25094
AEHF-5 (USA 292)        
1 44481U 19051A   26159.07706130 -.00000243  00000+0  00000+0 0  9992
2 44481   1.4619 335.4513 0067045   0.9823  40.8101  1.00267904 25170
EUTELSAT 5 WEST B       
1 44624U 19067A   26159.12886596 -.00000027  00000+0  00000+0 0  9999
2 44624   0.0633 345.3916 0003183  91.8739 220.6603  1.00272029 24342
TJS-4                   
1 44637U 19070A   26159.14637273 -.00000154  00000+0  00000+0 0  9996
2 44637   0.0127 285.1460 0004898 114.5803 353.0353  1.00270325 24449
BEIDOU-3 IGSO-3         
1 44709U 19073A   26136.81046384 -.00000217  00000+0  00000+0 0  9995
2 44709  54.8566 281.2355 0042953 189.4588 170.3676  1.00246251 24144
